satname,norad_id,inclination_deg,eccentricity,mean_motion_rev_per_day,perigee_km,apogee_km,l1,l2
STARLINK-1422,45696,53.1546,0.0001916,15.40334366,443.81436984990796,446.4290425861309,1 45696U 20035AR  26201.24673157  .00029531  00000+0  72811-3 0  9997,2 45696  53.1546 150.4387 0001916  96.1156 264.0068 15.40334366339319
STARLINK-1351,45697,53.041,8.2e-05,15.70469203,357.0027505568514,358.1074040575295,1 45697U 20035AS  26201.92509987  .00043536  00000+0  35106-3 0  9999,2 45697  53.0410  89.8016 0000820  29.8807 330.2256 15.70469203340209
STARLINK-1400,45700,53.0415,0.0001415,15.75432152,342.4506260780636,344.3528215369006,1 45700U 20035AV  26201.92454423  .00058813  00000+0  38190-3 0  9998,2 45700  53.0415  91.4641 0001415 160.9520 199.1552 15.75432152340177
STARLINK-1403,45701,53.1519,0.0004693,15.37287452,450.928175116097,457.34094520246344,1 45701U 20035AW  26201.51891809  .00029798  00000+0  81102-3 0  9998,2 45701  53.1519 137.4009 0004693  47.7223 312.4178 15.37287452339515
STARLINK-1407,45703,53.0266,0.0003865,15.81586846,323.3614969418941,328.5437582240165,1 45703U 20035AY  26201.73519306  .00081474  00000+0  39888-3 0  9996,2 45703  53.0266  16.8267 0003865 203.2030 156.8818 15.81586846341204
STARLINK-1423,45710,53.0408,0.0003022,15.73887404,345.7664896175411,349.83164537673565,1 45710U 20035BF  26201.91292202  .00055462  00000+0  38535-3 0  9993,2 45710  53.0408  87.8882 0003022 203.6361 156.4519 15.73887404340216
STARLINK-1433,45711,53.0409,0.0001333,15.79880392,329.88492315925487,331.673520223957,1 45711U 20035BG  26201.92551337  .00073541  00000+0  39022-3 0  9992,2 45711  53.0409  85.2715 0001333 206.0199 154.0755 15.79880392340259
STARLINK-1434,45712,53.0476,0.0002962,15.37765747,450.6944822226742,454.7410805951804,1 45712U 20035BH  26201.93663660  .00030749  00000+0  82372-3 0  9996,2 45712  53.0476 117.3771 0002962 105.7025 254.4305 15.37765747339822
STARLINK-1465,45731,53.0428,0.000296,15.73041126,348.21957759303586,352.20275970887724,1 45731U 20038B   26201.42831637  .00046432  00000+0  33558-3 0  9993,2 45731  53.0428 294.7832 0002960 336.4069  23.6812 15.73041126337125
STARLINK-1471,45735,53.0431,0.0002886,15.56364587,396.23319427318074,400.14448954913223,1 45735U 20038F   26201.78220656  .00038631  00000+0  54233-3 0  9994,2 45735  53.0431 220.9904 0002886   6.8645 353.2405 15.56364587338209
STARLINK-1480,45741,53.0459,0.0001324,15.69501898,359.4301524702896,361.21449649941314,1 45741U 20038M   26201.56389559  .00037532  00000+0  31591-3 0  9996,2 45741  53.0459 288.8366 0001324 128.8131 231.3004 15.69501898337237
STARLINK-1500,45744,53.0346,0.0002802,15.41174186,440.7315352168516,444.55390017064747,1 45744U 20038Q   26201.42727489  .00014696  00000+0  35795-3 0  9998,2 45744  53.0346 286.9346 0002802 348.5152  11.5788 15.41174186337242
STARLINK-1504,45746,53.0176,0.0002455,15.61848948,380.65668053717127,383.97606314274435,1 45746U 20038S   26201.38071456  .00022643  00000+0  26139-3 0  9994,2 45746  53.0176 217.7551 0002455   7.7323 352.3727 15.61848948338193
STARLINK-1506,45747,53.0743,0.0002443,15.29357859,476.05581593033185,479.40559289070734,1 45747U 20038T   26201.31778985  .00007001  00000+0  25469-3 0  9995,2 45747  53.0743 307.2848 0002443 334.9608  25.1272 15.29357859336969
STARLINK-1464,45751,53.0446,0.0001704,15.56413478,396.89227139986724,399.2015948842818,1 45751U 20038X   26201.40898637  .00039707  00000+0  55621-3 0  9998,2 45751  53.0446 286.4503 0001704 131.7081 228.4075 15.56413478337259
STARLINK-1477,45754,53.0491,8.77e-05,15.21028925,502.13229126006627,503.33919633932874,1 45754U 20038AA  26201.65010469  .00017378  00000+0  78588-3 0  9994,2 45754  53.0491 325.4650 0000877  17.1658 342.9367 15.21028925336724
STARLINK-1478,45755,53.0434,0.0004135,15.75805851,339.56009924439513,345.11793290969035,1 45755U 20038AB  26201.40399774  .00052409  00000+0  33539-3 0  9998,2 45755  53.0434 265.8446 0004135  16.8316 343.2839 15.75805851337527
STARLINK-1493,45759,53.0439,0.0002177,15.6936357,359.2512340372941,362.18533162744006,1 45759U 20038AF  26201.82592015  .00044011  00000+0  37141-3 0  9994,2 45759  53.0439 275.1197 0002177 114.1604 245.9640 15.69363570337437
STARLINK-1502,45764,53.0425,0.0003539,15.68520072,360.7482855701128,365.5197571990484,1 45764U 20038AL  26201.40483533  .00035292  00000+0  30958-3 0  9998,2 45764  53.0425 281.4167 0003539  16.1941 343.9187 15.68520072337327
STARLINK-1470,45772,53.0396,0.000141,15.3846507,449.68474866993984,451.61046592919683,1 45772U 20038AU  26201.89161763  .00025063  00000+0  65877-3 0  9991,2 45772  53.0396 270.8471 0001410  26.3472 333.7602 15.38465070337514
STARLINK-1482,45773,53.1557,0.0001327,15.41367535,441.16726534465124,442.97734889476123,1 45773U 20038AV  26201.43697923  .00032094  00000+0  76370-3 0  9996,2 45773  53.1557 289.1227 0001327  53.0429 307.0698 15.41367535337243
STARLINK-1496,45780,53.0419,0.0006491,15.73940545,343.2819678306505,352.01338149529784,1 45780U 20038BC  26201.42115704  .00049206  00000+0  34155-3 0  9993,2 45780  53.0419 250.1634 0006491  15.9056 344.2165 15.73940545337747
STARLINK-1513,45786,53.1599,0.0001542,15.31855317,469.22101700528947,471.3330678959819,1 45786U 20038BJ  26201.24989405  .00022822  00000+0  74137-3 0  9995,2 45786  53.1599 294.3902 0001542  67.9552 292.1613 15.31855317337151
STARLINK-1522,46027,53.0616,0.0001615,15.14755953,520.6052384850664,522.8338921556651,1 46027U 20055A   26201.40552647  .00010442  00000+0  57195-3 0  9995,2 46027  53.0616 245.5710 0001615  58.1660 301.9490 15.14755953328964
STARLINK-1523,46028,53.1598,0.0004585,15.33275752,462.90872550538006,469.18484203509706,1 46028U 20055B   26201.45349152  .00018776  00000+0  58568-3 0  9999,2 46028  53.1598 229.4984 0004585  26.8450 333.2788 15.33275752329231
STARLINK-1526,46029,53.1589,0.00011,15.31698467,469.99118805053513,471.4979419948413,1 46029U 20055C   26201.78941342  .00000250  00000+0  19808-4 0  9998,2 46029  53.1589 228.1061 0001100  82.8300 277.2826 15.31698467329274
STARLINK-1555,46032,53.1599,0.0001151,15.31704611,469.93794594897827,471.51455426915345,1 46032U 20055F   26201.31867538  .00001156  00000+0  48995-4 0  9990,2 46032  53.1599 230.3066 0001151  62.7509 297.3610 15.31704611329209
STARLINK-1556,46033,53.159,0.0001086,15.31708066,469.97216557440424,471.45973643536126,1 46033U 20055G   26201.36527762  .00000208  00000+0  18465-4 0  9994,2 46033  53.1590 230.0809 0001086  76.2955 283.8168 15.31708066329188
STARLINK-1557,46034,53.1581,7.22e-05,15.31733684,470.1451051449394,471.1340684840752,1 46034U 20055H   26201.37460731 -.00005388  00000+0 -16182-3 0  9997,2 46034  53.1581 230.1005 0000722  51.8986 308.2080 15.31733684329186
STARLINK-1558,46035,53.159,0.0001299,15.31699787,469.85096096347934,471.63029937179635,1 46035U 20055J   26201.78011101  .00000555  00000+0  29646-4 0  9995,2 46035  53.1590 228.2846 0001299  84.8919 275.2231 15.31699787329276
STARLINK-1560,46036,53.1585,0.0001164,15.31709821,469.91351361756733,471.5079253666654,1 46036U 20055K   26201.36995050  .00000655  00000+0  32874-4 0  9992,2 46036  53.1585 230.1487 0001164  83.3656 276.7478 15.31709821329211
STARLINK-1569,46039,53.1595,0.0001159,15.31706821,469.925879767884,471.5134447421942,1 46039U 20055N   26201.44451264  .00000546  00000+0  29352-4 0  9994,2 46039  53.1595 229.7091 0001159  77.9007 282.2125 15.31706821329211
STARLINK-1582,46043,53.1586,0.0001243,15.31700294,469.8878035255166,471.59043412865685,1 46043U 20055S   26201.77932695  .00000285  00000+0  20958-4 0  9990,2 46043  53.1586 227.4573 0001243  89.2919 270.8225 15.31700294329276
STARLINK-1591,46045,53.1593,0.0001133,15.31697144,469.97253009811175,471.5244875544122,1 46045U 20055U   26201.80339042  .00001748  00000+0  68097-4 0  9994,2 46045  53.1593 228.0400 0001133  78.8950 281.2179 15.31697144329250
STARLINK-1524,46047,53.1582,0.0001123,15.31699298,469.97295873035273,471.5112169734839,1 46047U 20055W   26201.74865283 -.00000099  00000+0  85651-5 0  9995,2 46047  53.1582 214.8981 0001123  91.4959 268.6171 15.31699298329451
STARLINK-1527,46048,53.157,0.0001126,15.3171618,469.920585793343,471.4629420309757,1 46048U 20055X   26201.41773892  .00001649  00000+0  64865-4 0  9998,2 46048  53.1570 216.4199 0001126  96.9952 263.1177 15.31716180329371
STARLINK-1540,46051,53.1583,9.68e-05,15.31703214,470.0674441099227,471.3933848413644,1 46051U 20055AA  26201.86053656  .00000986  00000+0  43528-4 0  9996,2 46051  53.1583 214.5691 0000968  78.4039 281.7071 15.31703214329484
STARLINK-1541,46052,53.1433,0.0004176,16.16462869,226.41382583541872,231.93225117958082,1 46052U 20055AB  26201.96288964  .01156684  96362-3  77560-3 0  9990,2 46052  53.1433 177.6751 0004176  45.5007 314.6371 16.16462869329964
STARLINK-1543,46053,53.1591,0.0001061,15.31703806,470.00198511574854,471.45531440662853,1 46053U 20055AC  26201.31053568  .00000154  00000+0  16708-4 0  9997,2 46053  53.1591 216.9368 0001061  87.8036 272.3087 15.31703806329398
STARLINK-1548,46054,53.1586,0.0001041,15.31713678,469.98625827208707,471.41218597353236,1 46054U 20055AD  26201.32453364  .00000650  00000+0  32706-4 0  9994,2 46054  53.1586 216.9466 0001041  70.7196 289.3918 15.31713678329397
STARLINK-1554,46055,53.1592,0.0001483,15.31679889,469.78424837705734,471.81564307515964,1 46055U 20055AE  26201.43640233 -.00002917  00000+0 -82309-4 0  9994,2 46055  53.1592 216.3684 0001483 101.5877 258.5291 15.31679889329410
STARLINK-1564,46058,53.1591,9.12e-05,15.30200178,474.58951228320075,475.8395636037203,1 46058U 20055AH  26201.85977974  .00002167  00000+0  85250-4 0  9991,2 46058  53.1591 215.8083 0000912  62.3008 297.8086 15.30200178329457
STARLINK-1570,46059,53.1586,0.000118,15.31708142,469.9075598333511,471.5238890763221,1 46059U 20055AJ  26201.33382860  .00000428  00000+0  25554-4 0  9998,2 46059  53.1586 216.7275 0001180  69.2046 290.9082 15.31708142329355
